NORAD_CAT_ID,OBJECT_NAME,OBJECT_TYPE,EPOCH,MEAN_MOTION,ECCENTRICITY,INCLINATION,RA_OF_ASC_NODE,ARG_OF_PERICENTER,MEAN_ANOMALY,BSTAR,MEAN_MOTION_DOT,MEAN_MOTION_DDOT,TLE_LINE0,TLE_LINE1,TLE_LINE2,SEMIMAJOR_AXIS,PERIOD,APOGEE,PERIGEE,DECAYED
53412.0,STARLINK-4496,PAYLOAD,2022-09-06 06:00:00,15.73129197,8.7e-05,53.2173,114.1571,80.3759,247.9469,5.681e-05,7.337e-05,0.0,0 STARLINK-4496,1 53412U 22097AA  22249.25001157  .00007337  00000-0  56810-4 0  9999,2 53412  53.2173 114.1571 0000870  80.3759 247.9469 15.73129197  4689,6728.097,91.537,350.547,349.37699999999984,0.0
53412.0,STARLINK-4496,PAYLOAD,2022-09-06 14:00:01,15.7314883,9.74e-05,53.2177,112.5063,93.7873,323.379,0.00013404,0.00018192,0.0,0 STARLINK-4496,1 53412U 22097AA  22249.58334491  .00018192  00000-0  13404-3 0  9997,2 53412  53.2177 112.5063 0000974  93.7873 323.3790 15.73148830  1308,6728.041,91.536,350.561,349.251,0.0
53412.0,STARLINK-4496,PAYLOAD,2022-09-06 20:00:01,15.73184173,0.0001018,53.2177,111.271,84.7674,309.076,-0.00036094,-0.00050933,0.0,0 STARLINK-4496,1 53412U 22097AA  22249.83334491 -.00050933  00000-0 -36094-3 0  9996,2 53412  53.2177 111.2710 0001018  84.7674 309.0760 15.73184173  4774,6727.94,91.534,350.49,349.12,0.0
53412.0,STARLINK-4496,PAYLOAD,2022-09-06 22:00:00,15.73144454,0.0001072,53.2176,110.859,79.5749,66.4979,9.7756e-05,0.00013089,0.0,0 STARLINK-4496,1 53412U 22097AA  22249.91667824  .00013089  00000-0  97756-4 0  9996,2 53412  53.2176 110.8590 0001072  79.5749  66.4979 15.73144454  1309,6728.054,91.536,350.64,349.19699999999995,0.0
53412.0,STARLINK-4496,PAYLOAD,2022-09-07 04:00:00,15.73157489,0.0001054999999999,53.2175,109.622,76.4997,46.2176,0.00032411,0.00045028,0.0,0 STARLINK-4496,1 53412U 22097AA  22250.16667824  .00045028  00000-0  32411-3 0  9999,2 53412  53.2175 109.6220 0001055  76.4997  46.2176 15.73157489  4834,6728.016,91.536,350.591,349.172,0.0
53412.0,STARLINK-4496,PAYLOAD,2022-09-07 14:00:01,15.73192083,0.0001053,53.2176,107.5586,91.3386,232.5062,0.00059008,0.00082987,0.0,0 STARLINK-4496,1 53412U 22097AA  22250.58334491  .00082987  00000-0  59008-3 0  9992,2 53412  53.2176 107.5586 0001053  91.3386 232.5062 15.73192083  1305,6727.918000000002,91.534,350.491,349.074,0.0
53412.0,STARLINK-4496,PAYLOAD,2022-09-07 22:00:00,15.73268731,0.0001164,53.2172,105.9095,77.7564,335.0393,-0.00053389,-0.0007509999999999,0.0,0 STARLINK-4496,1 53412U 22097AA  22250.91667824 -.00075100  00000-0 -53389-3 0  9995,2 53412  53.2172 105.9095 0001164  77.7564 335.0393 15.73268731  1307,6727.699000000001,91.529,350.347,348.781,0.0
53412.0,STARLINK-4496,PAYLOAD,2022-09-08 06:00:00,15.73225435,0.0001216,53.2168,104.2608,82.4657,59.2831,0.00012102,0.00016416,0.0,0 STARLINK-4496,1 53412U 22097AA  22251.25001157  .00016416  00000-0  12102-3 0  9995,2 53412  53.2168 104.2608 0001216  82.4657  59.2831 15.73225435  5005,6727.823,91.532,350.506,348.87,0.0
53412.0,STARLINK-4496,PAYLOAD,2022-09-08 14:00:01,15.73241085,0.0001365999999999,53.2171,102.6101,91.8515,138.8338,-0.00032932,-0.00046664,0.0,0 STARLINK-4496,1 53412U 22097AA  22251.58334491 -.00046664  00000-0 -32932-3 0  9994,2 53412  53.2171 102.6101 0001366  91.8515 138.8338 15.73241085  1306,6727.778,91.531,350.56199999999984,348.724,0.0
53412.0,STARLINK-4496,PAYLOAD,2022-09-08 22:00:00,15.73221523,0.0001403,53.217,100.9625,79.7277,239.9451,0.00016028,0.00021953,0.0,0 STARLINK-4496,1 53412U 22097AA  22251.91667824  .00021953  00000-0  16028-3 0  9990,2 53412  53.2170 100.9625 0001403  79.7277 239.9451 15.73221523  1303,6727.834,91.532,350.64300000000014,348.755,0.0
53412.0,STARLINK-4496,PAYLOAD,2022-09-09 14:00:01,15.73215713,9.71e-05,53.2169,97.6615,88.64,48.9584,-0.00012036,-0.00017487,0.0,0 STARLINK-4496,1 53412U 22097AA  22252.58334491 -.00017487  00000-0 -12036-3 0  9999,2 53412  53.2169  97.6615 0000971  88.6400  48.9584 15.73215713  1307,6727.85,91.532,350.369,349.06199999999984,0.0
53412.0,STARLINK-4496,PAYLOAD,2022-09-09 22:00:00,15.73210755,0.0001095999999999,53.2165,96.0121,70.6274,155.9112,-0.00046545,-0.00065464,0.0,0 STARLINK-4496,1 53412U 22097AA  22252.91667824 -.00065464  00000-0 -46545-3 0  9995,2 53412  53.2165  96.0121 0001096  70.6274 155.9112 15.73210755  1304,6727.865,91.533,350.467,348.992,0.0
53412.0,STARLINK-4496,PAYLOAD,2022-09-10 14:00:01,15.731704999999998,0.0001216,53.2163,92.7126,87.6534,316.7471,0.00021885,0.00030166,0.0,0 STARLINK-4496,1 53412U 22097AA  22253.58334491  .00030166  00000-0  21885-3 0  9999,2 53412  53.2163  92.7126 0001216  87.6534 316.7471 15.73170500  1309,6727.979,91.535,350.662,349.026,0.0
53412.0,STARLINK-4496,PAYLOAD,2022-09-10 20:00:01,15.73209027,0.0001219,53.2165,91.4755,75.0058,306.0667,-0.0002917,-0.00041372,0.0,0 STARLINK-4496,1 53412U 22097AA  22253.83334491 -.00041372  00000-0 -29170-3 0  9995,2 53412  53.2165  91.4755 0001219  75.0058 306.0667 15.73209027  5401,6727.869000000002,91.533,350.555,348.914,0.0
53412.0,STARLINK-4496,PAYLOAD,2022-09-10 22:00:00,15.73195807,0.0001181,53.2164,91.0652,72.0399,61.258,-0.00018668,-0.00026731,0.0,0 STARLINK-4496,1 53412U 22097AA  22253.91667824 -.00026731  00000-0 -18668-3 0  9995,2 53412  53.2164  91.0652 0001181  72.0399  61.2580 15.73195807  1304,6727.906999999997,91.533,350.56699999999995,348.978,0.0
53412.0,STARLINK-4496,PAYLOAD,2022-09-11 06:00:00,15.73246194,0.0001341999999999,53.2163,89.4142,76.1395,146.1039,-0.00046607,-0.00065651,0.0,0 STARLINK-4496,1 53412U 22097AA  22254.25001157 -.00065651  00000-0 -46607-3 0  9992,2 53412  53.2163  89.4142 0001342  76.1395 146.1039 15.73246194  5478,6727.763000000001,91.53,350.531,348.726,0.0
53412.0,STARLINK-4496,PAYLOAD,2022-09-11 14:00:01,15.7324826,0.0001284,53.2163,87.7641,82.5784,228.6098,-0.00047884,-0.00067424,0.0,0 STARLINK-4496,1 53412U 22097AA  22254.58334491 -.00067424  00000-0 -47884-3 0  9996,2 53412  53.2163  87.7641 0001284  82.5784 228.6098 15.73248260  1306,6727.7580000000025,91.53,350.486,348.759,0.0
53412.0,STARLINK-4496,PAYLOAD,2022-09-11 22:00:00,15.731857500000002,0.0001184,53.216,86.1165,67.0662,333.0835,0.0003438999999999,0.0004789,0.0,0 STARLINK-4496,1 53412U 22097AA  22254.91667824  .00047890  00000-0  34390-3 0  9993,2 53412  53.2160  86.1165 0001184  67.0662 333.0835 15.73185750  5576,6727.936,91.534,350.597,349.004,0.0
53412.0,STARLINK-4496,PAYLOAD,2022-09-12 12:00:00,15.73177241,9.67e-05,53.2159,83.2272,78.0486,27.7488,0.00023186,0.00032012,0.0,0 STARLINK-4496,1 53412U 22097AA  22255.50001157  .00032012  00000-0  23186-3 0  9991,2 53412  53.2159  83.2272 0000967  78.0486  27.7488 15.73177241  5673,6727.96,91.535,350.476,349.1740000000001,0.0
53412.0,STARLINK-4496,PAYLOAD,2022-09-12 14:00:01,15.73178358,0.0001012,53.2161,82.8152,76.6792,141.3457,0.00030059,0.00041736,0.0,0 STARLINK-4496,1 53412U 22097AA  22255.58334491  .00041736  00000-0  30059-3 0  9999,2 53412  53.2161  82.8152 0001012  76.6792 141.3457 15.73178358  1309,6727.956999999999,91.534,350.50300000000016,349.141,0.0
53412.0,STARLINK-4496,PAYLOAD,2022-09-12 22:00:00,15.73211481,0.0001226,53.2163,81.1676,62.1133,244.8753,3.6744e-05,4.542e-05,0.0,0 STARLINK-4496,1 53412U 22097AA  22255.91667824  .00004542  00000-0  36744-4 0  9997,2 53412  53.2163  81.1676 0001226  62.1133 244.8753 15.73211481  5734,6727.861999999999,91.533,350.552,348.903,0.0
53412.0,STARLINK-4496,PAYLOAD,2022-09-13 14:00:01,15.7322569,0.0001175,53.2164,77.8667,69.5235,55.3474,-0.00042043,-0.00059274,0.0,0 STARLINK-4496,1 53412U 22097AA  22256.58334491 -.00059274  00000-0 -42043-3 0  9994,2 53412  53.2164  77.8667 0001175  69.5235  55.3474 15.73225690  1305,6727.821999999999,91.532,350.477,348.896,0.0
53412.0,STARLINK-4496,PAYLOAD,2022-09-13 16:00:00,15.7322147,0.0001188,53.2166,77.4548,64.7651,172.3429,-0.00053631,-0.00075285,0.0,0 STARLINK-4496,1 53412U 22097AA  22256.66667824 -.00075285  00000-0 -53631-3 0  9997,2 53412  53.2166  77.4548 0001188  64.7651 172.3429 15.73221470  5850,6727.834,91.532,350.49800000000016,348.9,0.0
53412.0,STARLINK-4496,PAYLOAD,2022-09-13 22:00:00,15.73119338,0.0001378,53.2161,76.218,57.2634,156.5309,0.00058755,0.00082365,0.0,0 STARLINK-4496,1 53412U 22097AA  22256.91667824  .00082365  00000-0  58755-3 0  9992,2 53412  53.2161  76.2180 0001378  57.2634 156.5309 15.73119338  1309,6728.125,91.538,350.917,349.06300000000016,0.0
53412.0,STARLINK-4496,PAYLOAD,2022-09-14 06:00:00,15.73206153,0.0001271,53.2164,74.5612,63.8337,238.835,-0.00081101,-0.00112953,0.0,0 STARLINK-4496,1 53412U 22097AA  22257.25001157 -.00112953  00000-0 -81101-3 0  9991,2 53412  53.2164  74.5612 0001271  63.8337 238.8350 15.73206153  5944,6727.878000000002,91.533,350.598,348.88800000000015,0.0
53412.0,STARLINK-4496,PAYLOAD,2022-09-14 14:00:01,15.73253589,0.0001214,53.2168,72.9053,64.061,327.4845,-0.005483,-0.00709955,0.0,0 STARLINK-4496,1 53412U 22097AA  22257.58334491 -.00709955  00000-0 -54830-2 0  9999,2 53412  53.2168  72.9053 0001214  64.0610 327.4845 15.73253589  5997,6727.7419999999975,91.53,350.4240000000001,348.791,0.0
53412.0,STARLINK-4496,PAYLOAD,2022-09-14 20:00:01,15.72963959,0.0001155,53.2173,71.666,56.9757,311.1348,-0.008493,-0.0106097999999999,0.0,0 STARLINK-4496,1 53412U 22097AA  22257.83334491 -.01060980  00000-0 -84930-2 0  9990,2 53412  53.2173  71.6660 0001155  56.9757 311.1348 15.72963959  6031,6728.568,91.547,351.21,349.656,0.0
53412.0,STARLINK-4496,PAYLOAD,2022-09-14 22:00:00,15.72760817,0.0001277,53.2171,71.2561,53.0721,67.1706,-0.0083784,-0.01039888,0.0,0 STARLINK-4496,1 53412U 22097AA  22257.91667824 -.01039888  00000-0 -83784-2 0  9997,2 53412  53.2171  71.2561 0001277  53.0721  67.1706 15.72760817  1308,6729.148,91.559,351.872,350.153,0.0
53412.0,STARLINK-4496,PAYLOAD,2022-09-15 14:00:01,15.71251422,0.0001145,53.2175,67.9586,75.1414,220.0792,-0.0090927,-0.01056155,0.0,0 STARLINK-4496,1 53412U 22097AA  22258.58334491 -.01056155  00000-0 -90927-2 0  9995,2 53412  53.2175  67.9586 0001145  75.1414 220.0792 15.71251422  1300,6733.456,91.647,356.092,354.55,0.0
